{
  "type": "FeatureCollection",
  "generator": "overpass-turbo",
  "copyright": "The data included in this document is from www.openstreetmap.org. The data is made available under ODbL.",
  "timestamp": "2025-07-16T18:40:45Z",
  "features": [
    {
      "type": "Feature",
      "properties": {
        "@id": "relation/6941018",
        "admin_level": "6",
        "boundary": "administrative",
        "name": "Phường An Phú Đông",
        "type": "boundary"
      },
      "geometry": {
        "type": "Polygon",
        "coordinates": [
          [
            [
              106.7028406,
              10.839133
            ],
            [
              106.7010413,
              10.8401936
            ],
            [
              106.7004906,
              10.8405373
            ],
            [
              106.7002219,
              10.8407191
            ],
            [
              106.6999259,
              10.8409314
            ],
            [
              106.6994467,
              10.8413013
            ],
            [
              106.6991486,
              10.8416074
            ],
            [
              106.6988751,
              10.8419349
            ],
            [
              106.698748,
              10.8421061
            ],
            [
              106.6985082,
              10.8424722
            ],
            [
              106.6983994,
              10.8426619
            ],
            [
              106.6982049,
              10.8430531
            ],
            [
              106.6980738,
              10.8434797
            ],
            [
              106.6980188,
              10.8436959
            ],
            [
              106.69793,
              10.8441328
            ],
            [
              106.6978964,
              10.8443532
            ],
            [
              106.697867,
              10.8446041
            ],
            [
              106.6978469,
              10.8448559
            ],
            [
              106.6978362,
              10.8451082
            ],
            [
              106.6978347,
              10.8453608
            ],
            [
              106.697885,
              10.8460493
            ],
            [
              106.6979581,
              10.8467359
            ],
            [
              106.698077,
              10.847563
            ],
            [
              106.6981489,
              10.8479747
            ],
            [
              106.6982263,
              10.8483902
            ],
            [
              106.6983048,
              10.8487142
            ],
            [
              106.6983568,
              10.8488751
            ],
            [
              106.6984178,
              10.8490329
            ],
            [
              106.6984878,
              10.8491871
            ],
            [
              106.698554,
              10.8493145
            ],
            [
              106.6987045,
              10.8495594
            ],
            [
              106.6988781,
              10.849789
            ],
            [
              106.6991444,
              10.8500589
            ],
            [
              106.699286,
              10.8501853
            ],
            [
              106.6995848,
              10.8504201
            ],
            [
              106.6997415,
              10.850528
            ],
            [
              106.700085,
              10.8507331
            ],
            [
              106.700272,
              10.8508284
            ],
            [
              106.7004633,
              10.8509152
            ],
            [
              106.7006584,
              10.8509931
            ],
            [
              106.7008571,
              10.8510621
            ],
            [
              106.7010587,
              10.851122
            ],
            [
              106.701832,
              10.8513169
            ],
            [
              106.7026117,
              10.8514855
            ],
            [
              106.7034936,
              10.8516432
            ],
            [
              106.7039368,
              10.8517094
            ],
            [
              106.7041691,
              10.8517419
            ],
            [
              106.704636,
              10.8517869
            ],
            [
              106.7048703,
              10.8517994
            ],
            [
              106.7053395,
              10.8518042
            ],
            [
              106.7058026,
              10.8517827
            ],
            [
              106.7060335,
              10.8517621
            ],
            [
              106.7064929,
              10.8517015
            ],
            [
              106.7092585,
              10.8512774
            ],
            [
              106.710091,
              10.8511706
            ],
            [
              106.7109427,
              10.8510811
            ],
            [
              106.7112454,
              10.8510767
            ],
            [
              106.7115481,
              10.851082
            ],
            [
              106.7118504,
              10.8510971
            ],
            [
              106.7121521,
              10.8511218
            ],
            [
              106.7123751,
              10.8511473
            ],
            [
              106.7127032,
              10.8511924
            ],
            [
              106.7129525,
              10.8512353
            ],
            [
              106.7134471,
              10.851341
            ],
            [
              106.7136919,
              10.8514038
            ],
            [
              106.7139333,
              10.8515031
            ],
            [
              106.7141713,
              10.8516101
            ],
            [
              106.7146361,
              10.8518464
            ],
            [
              106.71487,
              10.85198
            ],
            [
              106.7150993,
              10.8521212
            ],
            [
              106.7155427,
              10.8524259
            ],
            [
              106.7158154,
              10.8526867
            ],
            [
              106.7163473,
              10.8532214
            ],
            [
              106.7166364,
              10.8535275
            ],
            [
              106.7171969,
              10.8541553
            ],
            [
              106.7173539,
              10.8543909
            ],
            [
              106.7176516,
              10.8548721
            ],
            [
              106.7179915,
              10.8554895
            ],
            [
              106.7180521,
              10.8556478
            ],
            [
              106.7181037,
              10.855809
            ],
            [
              106.7181462,
              10.8559728
            ],
            [
              106.7181795,
              10.8561387
            ],
            [
              106.7182034,
              10.8563061
            ],
            [
              106.7182225,
              10.8565905
            ],
            [
              106.718222,
              10.8567331
            ],
            [
              106.7182147,
              10.8568966
            ],
            [
              106.7182007,
              10.8570173
            ],
            [
              106.7180425,
              10.8579261
            ],
            [
              106.7178628,
              10.8588718
            ],
            [
              106.7177297,
              10.8595046
            ],
            [
              106.7175841,
              10.8600943
            ],
            [
              106.7174084,
              10.8606822
            ],
            [
              106.7173089,
              10.8609756
            ],
            [
              106.7170885,
              10.8615549
            ],
            [
              106.7169806,
              10.8618098
            ],
            [
              106.7168419,
              10.862077
            ],
            [
              106.7165735,
              10.8625408
            ],
            [
              106.716283,
              10.8629916
            ],
            [
              106.716102,
              10.8632503
            ],
            [
              106.7160088,
              10.8633758
            ],
            [
              106.7157183,
              10.8637524
            ],
            [
              106.7155158,
              10.8639953
            ],
            [
              106.7153264,
              10.8641894
            ],
            [
              106.71513,
              10.8643768
            ],
            [
              106.714927,
              10.8645572
            ],
            [
              106.7147176,
              10.8647304
            ],
            [
              106.714502,
              10.8648961
            ],
            [
              106.7142809,
              10.865054
            ],
            [
              106.7140543,
              10.865204
            ],
            [
              106.7138225,
              10.8653461
            ],
            [
              106.7135856,
              10.8654799
            ],
            [
              106.713344,
              10.8656055
            ],
            [
              106.7131142,
              10.8657067
            ],
            [
              106.712064,
              10.8660836
            ],
            [
              106.7108069,
              10.8663793
            ],
            [
              106.7090249,
              10.8665977
            ],
            [
              106.705955,
              10.8668143
            ],
            [
              106.7051722,
              10.8668556
            ],
            [
              106.7043915,
              10.8669246
            ],
            [
              106.7035539,
              10.8670299
            ],
            [
              106.7027211,
              10.8671672
            ],
            [
              106.7023069,
              10.8672477
            ],
            [
              106.7020688,
              10.8673243
            ],
            [
              106.7018337,
              10.8674094
            ],
            [
              106.701602,
              10.8675029
            ],
            [
              106.7013738,
              10.8676046
            ],
            [
              106.7011496,
              10.8677144
            ],
            [
              106.7009296,
              10.8678322
            ],
            [
              106.7005135,
              10.8680845
            ],
            [
              106.7001262,
              10.8683581
            ],
            [
              106.6997591,
              10.8686574
            ],
            [
              106.6992908,
              10.8690812
            ],
            [
              106.6981293,
              10.8701968
            ],
            [
              106.6974949,
              10.8708128
            ],
            [
              106.6966,
              10.8717
            ],
            [
              106.6950192,
              10.8736285
            ],
            [
              106.6934,
              10.87598
            ],
            [
              106.6914878,
              10.8783192
            ],
            [
              106.6904,
              10.87965
            ],
            [
              106.6898,
              10.88067
            ],
            [
              106.6894,
              10.88216
            ],
            [
              106.6892,
              10.88297
            ],
            [
              106.6892,
              10.88381
            ],
            [
              106.6893,
              10.88489
            ],
            [
              106.6894,
              10.88591
            ],
            [
              106.6897,
              10.88658
            ],
            [
              106.6904,
              10.88779
            ],
            [
              106.6915089,
              10.8892131
            ],
            [
              106.6916,
              10.88933
            ],
            [
              106.6917,
              10.88948
            ],
            [
              106.6919,
              10.88995
            ],
            [
              106.6935,
              10.89278
            ],
            [
              106.6942,
              10.89412
            ],
            [
              106.6945,
              10.89571
            ],
            [
              106.6945,
              10.89666
            ],
            [
              106.6944,
              10.8975
            ],
            [
              106.6942,
              10.89856
            ],
            [
              106.6939,
              10.90065
            ],
            [
              106.6934,
              10.90271
            ],
            [
              106.693,
              10.90395
            ],
            [
              106.6929,
              10.90424
            ],
            [
              106.6913926,
              10.9036957
            ],
            [
              106.6905714,
              10.9032166
            ],
            [
              106.6898559,
              10.9026657
            ],
            [
              106.6890428,
              10.9018194
            ],
            [
              106.6885874,
              10.90154
            ],
            [
              106.6880167,
              10.9012602
            ],
            [
              106.6883541,
              10.9008099
            ],
            [
              106.688658,
              10.8996762
            ],
            [
              106.6890293,
              10.8979145
            ],
            [
              106.6890527,
              10.896987
            ],
            [
              106.6890718,
              10.8962327
            ],
            [
              106.688336,
              10.8943158
            ],
            [
              106.6879427,
              10.8935016
            ],
            [
              106.6858554,
              10.8905469
            ],
            [
              106.6852003,
              10.889083
            ],
            [
              106.6849994,
              10.8883177
            ],
            [
              106.6845812,
              10.8878183
            ],
            [
              106.6839898,
              10.8871121
            ],
            [
              106.6834072,
              10.8865836
            ],
            [
              106.6819086,
              10.885559
            ],
            [
              106.6798034,
              10.8822901
            ],
            [
              106.6774991,
              10.8770387
            ],
            [
              106.6770129,
              10.8759043
            ],
            [
              106.6768259,
              10.8751099
            ],
            [
              106.6768775,
              10.8720802
            ],
            [
              106.6769662,
              10.8706935
            ],
            [
              106.6773095,
              10.869551
            ],
            [
              106.6776297,
              10.8689722
            ],
            [
              106.6781372,
              10.8683297
            ],
            [
              106.6787999,
              10.8676431
            ],
            [
              106.6787245,
              10.8674925
            ],
            [
              106.6786649,
              10.8672853
            ],
            [
              106.6785791,
              10.8668638
            ],
            [
              106.6784879,
              10.8663106
            ],
            [
              106.6780212,
              10.864983
            ],
            [
              106.6775263,
              10.8632998
            ],
            [
              106.6773145,
              10.8624226
            ],
            [
              106.6773016,
              10.8623072
            ],
            [
              106.677018,
              10.8605577
            ],
            [
              106.6768517,
              10.8598517
            ],
            [
              106.676605,
              10.8593196
            ],
            [
              106.6763528,
              10.8585241
            ],
            [
              106.6762777,
              10.85815
            ],
            [
              106.6763046,
              10.8577655
            ],
            [
              106.6764091,
              10.8574129
            ],
            [
              106.6764655,
              10.8572228
            ],
            [
              106.6766157,
              10.8565801
            ],
            [
              106.6765782,
              10.855853
            ],
            [
              106.6764387,
              10.8549574
            ],
            [
              106.6763046,
              10.8544569
            ],
            [
              106.6760042,
              10.853851
            ],
            [
              106.6757487,
              10.853335
            ],
            [
              106.6757983,
              10.8528345
            ],
            [
              106.6757983,
              10.8521279
            ],
            [
              106.6769591,
              10.8516109
            ],
            [
              106.6784951,
              10.8510896
            ],
            [
              106.6788551,
              10.8510478
            ],
            [
              106.6792738,
              10.8509992
            ],
            [
              106.680378,
              10.8510965
            ],
            [
              106.6806529,
              10.8511735
            ],
            [
              106.6819423,
              10.8515345
            ],
            [
              106.6829828,
              10.8516874
            ],
            [
              106.6836128,
              10.8516109
            ],
            [
              106.6839738,
              10.8513537
            ],
            [
              106.6842357,
              10.8509644
            ],
            [
              106.6843348,
              10.8505195
            ],
            [
              106.6840234,
              10.849873
            ],
            [
              106.6832589,
              10.849004
            ],
            [
              106.6830324,
              10.8485521
            ],
            [
              106.6830111,
              10.848135
            ],
            [
              106.6831669,
              10.8476484
            ],
            [
              106.6835208,
              10.8471965
            ],
            [
              106.6842853,
              10.8469393
            ],
            [
              106.6853987,
              10.8471935
            ],
            [
              106.6859353,
              10.8474171
            ],
            [
              106.6864395,
              10.847449
            ],
            [
              106.6869924,
              10.8472893
            ],
            [
              106.6877079,
              10.8468262
            ],
            [
              106.6883421,
              10.8460276
            ],
            [
              106.6888787,
              10.8448297
            ],
            [
              106.6892365,
              10.8437117
            ],
            [
              106.6892365,
              10.8431687
            ],
            [
              106.6888787,
              10.8417313
            ],
            [
              106.6886999,
              10.8402459
            ],
            [
              106.6889928,
              10.8388246
            ],
            [
              106.6890576,
              10.8384092
            ],
            [
              106.6900171,
              10.8371154
            ],
            [
              106.6907488,
              10.8358377
            ],
            [
              106.6913505,
              10.8338891
            ],
            [
              106.6916107,
              10.8325794
            ],
            [
              106.6920173,
              10.8313176
            ],
            [
              106.6925377,
              10.8303273
            ],
            [
              106.6929605,
              10.8299919
            ],
            [
              106.6935622,
              10.8299919
            ],
            [
              106.6945704,
              10.8302794
            ],
            [
              106.6952232,
              10.8309559
            ],
            [
              106.6956523,
              10.832094
            ],
            [
              106.6959527,
              10.8326419
            ],
            [
              106.6963604,
              10.8330423
            ],
            [
              106.6968325,
              10.8333374
            ],
            [
              106.6975835,
              10.8336325
            ],
            [
              106.6987208,
              10.8339697
            ],
            [
              106.6995791,
              10.8343912
            ],
            [
              106.7001155,
              10.8350656
            ],
            [
              106.700373,
              10.8355081
            ],
            [
              106.700652,
              10.8362247
            ],
            [
              106.7008451,
              10.8368148
            ],
            [
              106.7011026,
              10.8374049
            ],
            [
              106.7014888,
              10.8380793
            ],
            [
              106.7028406,
              10.839133
            ]
          ]
        ]
      },
      "id": "relation/6941018"
    }
  ]
}